CCSDS_OMM_VERS = 2.0
CREATION_DATE  = 
ORIGINATOR     = 

OBJECT_NAME    = SL-3 R/B
OBJECT_ID      = 1982-079B
CENTER_NAME    = EARTH
REF_FRAME      = TEME
TIME_SYSTEM    = UTC
MEAN_ELEMENT_THEORY = SGP/SGP4

EPOCH          = 2025-12-11T23:00:13.369248
MEAN_MOTION    = 15.23571611
ECCENTRICITY   = .00271282
INCLINATION    = 81.1467
RA_OF_ASC_NODE = 296.5817
ARG_OF_PERICENTER = 101.5275
MEAN_ANOMALY   = 258.9006

EPHEMERIS_TYPE = 0
CLASSIFICATION_TYPE = U
NORAD_CAT_ID   = 13403
ELEMENT_SET_NO = 999
REV_AT_EPOCH   = 36433
BSTAR          = .38172716E-3
MEAN_MOTION_DOT = .9251E-4
MEAN_MOTION_DDOT = 0

CCSDS_OMM_VERS = 2.0
CREATION_DATE  = 
ORIGINATOR     = 

OBJECT_NAME    = SL-14 R/B
OBJECT_ID      = 1982-092B
CENTER_NAME    = EARTH
REF_FRAME      = TEME
TIME_SYSTEM    = UTC
MEAN_ELEMENT_THEORY = SGP/SGP4

EPOCH          = 2025-12-11T15:57:28.141056
MEAN_MOTION    = 14.86553947
ECCENTRICITY   = .00190887
INCLINATION    = 82.5685
RA_OF_ASC_NODE = 223.7171
ARG_OF_PERICENTER = 230.8315
MEAN_ANOMALY   = 158.4325

EPHEMERIS_TYPE = 0
CLASSIFICATION_TYPE = U
NORAD_CAT_ID   = 13553
ELEMENT_SET_NO = 999
REV_AT_EPOCH   = 31585
BSTAR          = .79949425E-4
MEAN_MOTION_DOT = .734E-5
MEAN_MOTION_DDOT = 0

CCSDS_OMM_VERS = 2.0
CREATION_DATE  = 
ORIGINATOR     = 

OBJECT_NAME    = SL-3 R/B
OBJECT_ID      = 1983-010B
CENTER_NAME    = EARTH
REF_FRAME      = TEME
TIME_SYSTEM    = UTC
MEAN_ELEMENT_THEORY = SGP/SGP4

EPOCH          = 2025-12-11T14:31:19.036416
MEAN_MOTION    = 15.43406989
ECCENTRICITY   = .0017258
INCLINATION    = 81.1037
RA_OF_ASC_NODE = 110.0036
ARG_OF_PERICENTER = 355.0868
MEAN_ANOMALY   = 5.0203

EPHEMERIS_TYPE = 0
CLASSIFICATION_TYPE = U
NORAD_CAT_ID   = 13819
ELEMENT_SET_NO = 999
REV_AT_EPOCH   = 34434
BSTAR          = .44933698E-3
MEAN_MOTION_DOT = .20234E-3
MEAN_MOTION_DDOT = 0

CCSDS_OMM_VERS = 2.0
CREATION_DATE  = 
ORIGINATOR     = 

OBJECT_NAME    = SL-3 R/B
OBJECT_ID      = 1983-075B
CENTER_NAME    = EARTH
REF_FRAME      = TEME
TIME_SYSTEM    = UTC
MEAN_ELEMENT_THEORY = SGP/SGP4

EPOCH          = 2025-12-12T00:08:03.569568
MEAN_MOTION    = 15.36111020
ECCENTRICITY   = .00226702
INCLINATION    = 97.6110
RA_OF_ASC_NODE = 342.4643
ARG_OF_PERICENTER = 177.9571
MEAN_ANOMALY   = 182.1769

EPHEMERIS_TYPE = 0
CLASSIFICATION_TYPE = U
NORAD_CAT_ID   = 14208
ELEMENT_SET_NO = 999
REV_AT_EPOCH   = 31668
BSTAR          = .43579923E-3
MEAN_MOTION_DOT = .15386E-3
MEAN_MOTION_DDOT = 0

CCSDS_OMM_VERS = 2.0
CREATION_DATE  = 
ORIGINATOR     = 

OBJECT_NAME    = COSMOS 1536
OBJECT_ID      = 1984-013A
CENTER_NAME    = EARTH
REF_FRAME      = TEME
TIME_SYSTEM    = UTC
MEAN_ELEMENT_THEORY = SGP/SGP4

EPOCH          = 2025-12-12T00:25:26.063328
MEAN_MOTION    = 15.22505392
ECCENTRICITY   = .00134259
INCLINATION    = 82.5454
RA_OF_ASC_NODE = 194.8803
ARG_OF_PERICENTER = 228.3629
MEAN_ANOMALY   = 131.6458

EPHEMERIS_TYPE = 0
CLASSIFICATION_TYPE = U
NORAD_CAT_ID   = 14699
ELEMENT_SET_NO = 999
REV_AT_EPOCH   = 25927
BSTAR          = .37595276E-3
MEAN_MOTION_DOT = .8764E-4
MEAN_MOTION_DDOT = 0

CCSDS_OMM_VERS = 2.0
CREATION_DATE  = 
ORIGINATOR     = 

OBJECT_NAME    = SL-14 R/B
OBJECT_ID      = 1984-027B
CENTER_NAME    = EARTH
REF_FRAME      = TEME
TIME_SYSTEM    = UTC
MEAN_ELEMENT_THEORY = SGP/SGP4

EPOCH          = 2025-12-12T00:24:10.243008
MEAN_MOTION    = 14.85873249
ECCENTRICITY   = .00163733
INCLINATION    = 82.5412
RA_OF_ASC_NODE = 327.2341
ARG_OF_PERICENTER = 263.4518
MEAN_ANOMALY   = 96.4835

EPHEMERIS_TYPE = 0
CLASSIFICATION_TYPE = U
NORAD_CAT_ID   = 14820
ELEMENT_SET_NO = 999
REV_AT_EPOCH   = 23461
BSTAR          = .94843716E-4
MEAN_MOTION_DOT = .852E-5
MEAN_MOTION_DDOT = 0

CCSDS_OMM_VERS = 2.0
CREATION_DATE  = 
ORIGINATOR     = 

OBJECT_NAME    = SL-8 R/B
OBJECT_ID      = 1985-006B
CENTER_NAME    = EARTH
REF_FRAME      = TEME
TIME_SYSTEM    = UTC
MEAN_ELEMENT_THEORY = SGP/SGP4

EPOCH          = 2025-12-11T12:09:09.092736
MEAN_MOTION    = 14.37720194
ECCENTRICITY   = .00186429
INCLINATION    = 74.0467
RA_OF_ASC_NODE = 63.4042
ARG_OF_PERICENTER = 355.8761
MEAN_ANOMALY   = 103.9932

EPHEMERIS_TYPE = 0
CLASSIFICATION_TYPE = U
NORAD_CAT_ID   = 15483
ELEMENT_SET_NO = 999
REV_AT_EPOCH   = 14135
BSTAR          = .14541603E-3
MEAN_MOTION_DOT = .412E-5
MEAN_MOTION_DDOT = 0

CCSDS_OMM_VERS = 2.0
CREATION_DATE  = 
ORIGINATOR     = 

OBJECT_NAME    = SL-12 R/B(2)
OBJECT_ID      = 1985-042D
CENTER_NAME    = EARTH
REF_FRAME      = TEME
TIME_SYSTEM    = UTC
MEAN_ELEMENT_THEORY = SGP/SGP4

EPOCH          = 2025-12-11T23:23:52.117728
MEAN_MOTION    = 14.21951692
ECCENTRICITY   = .00376373
INCLINATION    = 71.1086
RA_OF_ASC_NODE = 273.0356
ARG_OF_PERICENTER = 262.6140
MEAN_ANOMALY   = 172.8618

EPHEMERIS_TYPE = 0
CLASSIFICATION_TYPE = U
NORAD_CAT_ID   = 15772
ELEMENT_SET_NO = 999
REV_AT_EPOCH   = 10192
BSTAR          = .93059618E-4
MEAN_MOTION_DOT = .159E-5
MEAN_MOTION_DDOT = 0

CCSDS_OMM_VERS = 2.0
CREATION_DATE  = 
ORIGINATOR     = 

OBJECT_NAME    = SL-14 R/B
OBJECT_ID      = 1985-069B
CENTER_NAME    = EARTH
REF_FRAME      = TEME
TIME_SYSTEM    = UTC
MEAN_ELEMENT_THEORY = SGP/SGP4

EPOCH          = 2025-12-11T19:49:51.888000
MEAN_MOTION    = 14.86323025
ECCENTRICITY   = .00200976
INCLINATION    = 82.5266
RA_OF_ASC_NODE = 107.5616
ARG_OF_PERICENTER = 121.3127
MEAN_ANOMALY   = 239.0060

EPHEMERIS_TYPE = 0
CLASSIFICATION_TYPE = U
NORAD_CAT_ID   = 15945
ELEMENT_SET_NO = 999
REV_AT_EPOCH   = 15978
BSTAR          = .10698844E-3
MEAN_MOTION_DOT = .97E-5
MEAN_MOTION_DDOT = 0

CCSDS_OMM_VERS = 2.0
CREATION_DATE  = 
ORIGINATOR     = 

OBJECT_NAME    = SL-16 R/B
OBJECT_ID      = 1985-097B
CENTER_NAME    = EARTH
REF_FRAME      = TEME
TIME_SYSTEM    = UTC
MEAN_ELEMENT_THEORY = SGP/SGP4

EPOCH          = 2025-12-12T00:02:38.302080
MEAN_MOTION    = 14.16583559
ECCENTRICITY   = .00066122
INCLINATION    = 71.0033
RA_OF_ASC_NODE = 325.1565
ARG_OF_PERICENTER = 12.2404
MEAN_ANOMALY   = 44.1452

EPHEMERIS_TYPE = 0
CLASSIFICATION_TYPE = U
NORAD_CAT_ID   = 16182
ELEMENT_SET_NO = 999
REV_AT_EPOCH   = 7481
BSTAR          = .17301606E-3
MEAN_MOTION_DOT = .297E-5
MEAN_MOTION_DDOT = 0

CCSDS_OMM_VERS = 2.0
CREATION_DATE  = 
ORIGINATOR     = 

OBJECT_NAME    = SL-14 R/B
OBJECT_ID      = 1986-006B
CENTER_NAME    = EARTH
REF_FRAME      = TEME
TIME_SYSTEM    = UTC
MEAN_ELEMENT_THEORY = SGP/SGP4

EPOCH          = 2025-12-12T00:38:41.475552
MEAN_MOTION    = 14.86670527
ECCENTRICITY   = .00761049
INCLINATION    = 82.5264
RA_OF_ASC_NODE = 342.2219
ARG_OF_PERICENTER = 202.1986
MEAN_ANOMALY   = 157.5932

EPHEMERIS_TYPE = 0
CLASSIFICATION_TYPE = U
NORAD_CAT_ID   = 16496
ELEMENT_SET_NO = 999
REV_AT_EPOCH   = 13618
BSTAR          = .10470617E-3
MEAN_MOTION_DOT = .1006E-4
MEAN_MOTION_DDOT = 0

CCSDS_OMM_VERS = 2.0
CREATION_DATE  = 
ORIGINATOR     = 

OBJECT_NAME    = COSMOS 1743
OBJECT_ID      = 1986-034A
CENTER_NAME    = EARTH
REF_FRAME      = TEME
TIME_SYSTEM    = UTC
MEAN_ELEMENT_THEORY = SGP/SGP4

EPOCH          = 2025-12-11T22:41:09.780576
MEAN_MOTION    = 15.52079978
ECCENTRICITY   = .00046807
INCLINATION    = 82.5347
RA_OF_ASC_NODE = 165.4171
ARG_OF_PERICENTER = 257.1039
MEAN_ANOMALY   = 102.9690

EPHEMERIS_TYPE = 0
CLASSIFICATION_TYPE = U
NORAD_CAT_ID   = 16719
ELEMENT_SET_NO = 999
REV_AT_EPOCH   = 16661
BSTAR          = .60946551E-3
MEAN_MOTION_DOT = .36916E-3
MEAN_MOTION_DDOT = 0

