SL-3 R/B                
1 13403U 82079B   25345.95848807  .00009251  00000+0  38173-3 0  9996
2 13403  81.1467 296.5817 0027128 101.5275 258.9006 15.23571611364330
SL-14 R/B               
1 13553U 82092B   25345.66490904  .00000734  00000+0  79949-4 0  9990
2 13553  82.5685 223.7171 0019088 230.8315 158.4325 14.86553947315856
SL-3 R/B                
1 13819U 83010B   25345.60508144  .00020234  00000+0  44934-3 0  9998
2 13819  81.1037 110.0036 0017258 355.0868   5.0203 15.43406989344340
SL-3 R/B                
1 14208U 83075B   25346.00559687  .00015386  00000+0  43580-3 0  9993
2 14208  97.6110 342.4643 0022670 177.9571 182.1769 15.36111020316689
COSMOS 1536             
1 14699U 84013A   25346.01766277  .00008764  00000+0  37595-3 0  9997
2 14699  82.5454 194.8803 0013425 228.3629 131.6458 15.22505392259276
SL-14 R/B               
1 14820U 84027B   25346.01678522  .00000852  00000+0  94844-4 0  9994
2 14820  82.5412 327.2341 0016373 263.4518  96.4835 14.85873249234612
SL-8 R/B                
1 15483U 85006B   25345.50635524  .00000412  00000+0  14542-3 0  9994
2 15483  74.0467  63.4042 0018642 355.8761 103.9932 14.37720194141355
SL-12 R/B(2)            
1 15772U 85042D   25345.97490877  .00000159  00000+0  93060-4 0  9997
2 15772  71.1086 273.0356 0037637 262.6140 172.8618 14.21951692101926
SL-14 R/B               
1 15945U 85069B   25345.82629500  .00000970  00000+0  10699-3 0  9996
2 15945  82.5266 107.5616 0020097 121.3127 239.0060 14.86323025159780
SL-16 R/B               
1 16182U 85097B   25346.00183220  .00000297  00000+0  17302-3 0  9996
2 16182  71.0033 325.1565 0006612  12.2404  44.1452 14.16583559 74816
SL-14 R/B               
1 16496U 86006B   25346.02686893  .00001006  00000+0  10471-3 0  9990
2 16496  82.5264 342.2219 0076104 202.1986 157.5932 14.86670527136181
COSMOS 1743             
1 16719U 86034A   25345.94525209  .00036916  00000+0  60947-3 0  9993
2 16719  82.5347 165.4171 0004680 257.1039 102.9690 15.52079978166615
